{
  "links" : {
    "next" : "https://api.nasa.gov/neo/rest/v1/feed?start_date=2005-03-16&end_date=2005-03-16&detailed=true&api_key=t0TVs3DtDT2H8Oy2Zy8m2eVrNsAVKAexjcZXUckd",
    "prev" : "https://api.nasa.gov/neo/rest/v1/feed?start_date=2005-03-14&end_date=2005-03-14&detailed=true&api_key=t0TVs3DtDT2H8Oy2Zy8m2eVrNsAVKAexjcZXUckd",
    "self" : "https://api.nasa.gov/neo/rest/v1/feed?start_date=2005-03-15&end_date=2005-03-15&detailed=true&api_key=t0TVs3DtDT2H8Oy2Zy8m2eVrNsAVKAexjcZXUckd"
  },
  "element_count" : 1,
  "near_earth_objects" : {
    "2005-03-15" : [ {
      "links" : {
        "self" : "https://api.nasa.gov/neo/rest/v1/neo/3648631?api_key=t0TVs3DtDT2H8Oy2Zy8m2eVrNsAVKAexjcZXUckd"
      },
      "neo_reference_id" : "3648631",
      "name" : "(2013 SB20)",
      "nasa_jpl_url" : "http://ssd.jpl.nasa.gov/sbdb.cgi?sstr=3648631",
      "absolute_magnitude_h" : 24.8,
      "estimated_diameter" : {
        "kilometers" : {
          "estimated_diameter_min" : 0.0291443905,
          "estimated_diameter_max" : 0.0651688382
        },
        "meters" : {
          "estimated_diameter_min" : 29.1443904535,
          "estimated_diameter_max" : 65.1688382168
        },
        "miles" : {
          "estimated_diameter_min" : 0.018109479,
          "estimated_diameter_max" : 0.0404940262
        },
        "feet" : {
          "estimated_diameter_min" : 95.6180819754,
          "estimated_diameter_max" : 213.8085311752
        }
      },
      "is_potentially_hazardous_asteroid" : false,
      "close_approach_data" : [ {
        "close_approach_date" : "2005-03-15",
        "epoch_date_close_approach" : 1110873600000,
        "relative_velocity" : {
          "kilometers_per_second" : "3.9366716624",
          "kilometers_per_hour" : "14172.0179846982",
          "miles_per_hour" : "8805.9408416588"
        },
        "miss_distance" : {
          "astronomical" : "0.0676426058",
          "lunar" : "26.3129749298",
          "kilometers" : "10119190",
          "miles" : "6287773"
        },
        "orbiting_body" : "Earth"
      } ],
      "orbital_data" : {
        "orbit_id" : "5",
        "orbit_determination_date" : "2017-04-06 08:44:34",
        "orbit_uncertainty" : "7",
        "minimum_orbit_intersection" : ".0154806",
        "jupiter_tisserand_invariant" : "5.696",
        "epoch_osculation" : "2458000.5",
        "eccentricity" : ".08606542044587712",
        "semi_major_axis" : "1.085760872091662",
        "inclination" : "7.10331671501196",
        "ascending_node_longitude" : "181.6422590800554",
        "orbital_period" : "413.2374824637349",
        "perihelion_distance" : ".992314406131411",
        "perihelion_argument" : "319.9475400111879",
        "aphelion_distance" : "1.179207338051913",
        "perihelion_time" : "2457953.010039537729",
        "mean_anomaly" : "41.37181763979508",
        "mean_motion" : ".8711697638212019",
        "equinox" : "J2000"
      }
    } ]
  }
}